{{noteTA
|T=zh-hans:小行星779; zh-cn:尼娜星;zh-tw:尼娜星; zh-hk:尼娜星;
|1=zh-cn:尼娜星; zh-tw:尼娜星; zh-hk:尼娜星;
}}
{{Infobox Planet  
| name=779 尼娜星 Nina (1914 UB)
| image=
| caption=
| discovery=yes 
| physical_characteristics=yes 
| bgcolour=#FFFFC0
| discoverer=[[格里高利·诺伊明|格里高利·诺伊明]]
| discovery_site=[[西梅斯|西梅斯]]
| discovered=1914年1月25日
| mp_name=779
| alt_names=
| mp_category=[[小行星带|主带小行星]]
| epoch=2456400.5 (2013-Apr-18.0) TDB
| semimajor= 2.667505062869647AU
| perihelion=2.070036664191952AU
| aphelion=3.264973461547342AU
| eccentricity=.2239802304386072
| period=1591.315545623982天<br>4.36年
| inclination=14.57817131598014°
| asc_node=283.7852674538973°	
| arg_peri=49.19133706139633°
| mean_anomaly=72.27853038881773°
 | dimensions=
 | mean_radius=38.31千米
 | rotation=11.186小时
 | spectral_type=
 | abs_magnitude=8.30
 | albedo=0.1440
}}
尼娜星，編號779小行星（779 Nina (1914 UB)），是俄羅斯天文學家[[格里高利·诺伊明|格里高利·诺伊明]]于1914年1月25日在[[西梅斯|西梅斯]]发现的[[小行星带|主带小行星]]<ref>{{JPL Small Body|name=779}}</ref>，以他的妹妹，數學家Nina Nikolaeva Neujmina（1877-1956）命名<ref>[http://forum.hkas.org.hk/thread-10412-1-1.html 香港天文學會智能手提電話應用程式《香港天文》新增天文學名詞中文譯名]</ref>。

== 参考资料==
{{Reflist}}

{{Minor Planet Number|[[小行星778|小行星778]]|[[小行星780|小行星780]]}}
{{beltasteroid-stub}}

[[Category:小行星带天体|Category:小行星带天体]]
[[Category:1914年发现的小行星|Category:1914年发现的小行星]]